COSMO-SKYMED 1          
1 31598U 07023A   26176.82373074  .00003152  00000+0  27812-3 0  9997
2 31598  97.8861   8.7522 0001832  91.2992 268.8440 14.97144700 31088
COSMOS 2428             
1 31792U 07029A   26176.85159366 -.00000018  00000+0  15916-4 0  9990
2 31792  70.9372 336.2845 0007133 118.3647 241.8194 14.12927688979379
SL-16 R/B               
1 31793U 07029B   26176.82385162 -.00000191  00000+0 -73955-4 0  9993
2 31793  70.9771 305.0727 0002448 263.7165 250.8019 14.14855103980664
KORONAS-FOTON           
1 33504U 09003A   26176.75281260  .00013322  00000+0  27256-3 0  9995
2 33504  82.4286 163.3228 0012419 120.7554 239.4919 15.45886888962424
CZ-2C R/B               
1 37731U 11030B   26176.82047058  .00001198  00000+0  15624-3 0  9991
2 37731  97.8657 132.0507 0052298   0.1701  56.4028 14.81491083806107
H-2A R/B                
1 38341U 12025E   26176.85353694  .00002573  00000+0  23287-3 0  9995
2 38341  98.4822 152.7135 0043141 320.0100  39.7944 14.95754462764388
SHIJIAN-16 (SJ-16)      
1 39358U 13057A   26176.88588728  .00001232  00000+0  12218-3 0  9994
2 39358  74.9732 340.2071 0016581 210.5635 149.4589 14.92619336687647
SL-4 R/B                
1 39679U 14021B   26176.48872715  .00011250  00000+0  23172-3 0  9992
2 39679  51.6034 170.0969 0090842 136.1973 224.6264 15.42105744672891
ALOS-2                  
1 39766U 14029A   26176.86380778  .00000820  00000+0  11674-3 0  9997
2 39766  97.9218 273.9033 0001627  88.8619 271.2779 14.79468555652868
YAOGAN-29               
1 41038U 15069A   26176.88117752 -.00000226  00000+0 -21117-4 0  9995
2 41038  98.0031 205.5275 0002178  40.1431 319.9943 14.83088991571918
ASTRO-H (HITOMI)        
1 41337U 16012A   26176.82286925  .00002698  00000+0  15384-3 0  9990
2 41337  31.0004  18.4145 0009716 339.6483  20.3767 15.10546457568596
HXMT (HUIYAN)           
1 42758U 17034A   26176.88275571  .00004516  00000+0  22346-3 0  9991
2 42758  43.0129 134.6182 0031919 202.5190 157.4259 15.18528600498981
SAOCOM 1A               
1 43641U 18076A   26176.84491708  .00000114  00000+0  20884-4 0  9994
2 43641  97.8889   3.4678 0001576  80.1516 279.9875 14.82153615417383
H-2A R/B                
1 43682U 18084L   26176.74038282  .00023852  00000+0  49470-3 0  9996
2 43682  98.8574  57.5006 0022510  11.3078 348.8667 15.45468972422448
SAOCOM 1B               
1 46265U 20059A   26176.67355053  .00000424  00000+0  59858-4 0  9993
2 46265  97.8891   2.3941 0001606  84.2973 275.8423 14.82151565314740
CSS (TIANHE)            
1 48274U 21035A   26176.74214352  .00027491  00000+0  31832-3 0  9998
2 48274  41.4689 269.9263 0007837 150.3803 209.7481 15.61175416294509
COSMOS 2550             
1 48865U 21056A   26176.89230444  .00005841  00000+0  18310-3 0  9994
2 48865  67.1437  73.5735 0008420 268.2122  91.8068 15.33848298280056
CZ-2C R/B               
1 52794U 22058K   26176.81367550  .00041828  00000+0  45327-3 0  9997
2 52794  50.1846 118.6119 0031902 303.3342  56.4579 15.62435699226997
CZ-2C R/B               
1 54039U 22132E   26176.55523088  .00077865  00000+0  57779-3 0  9999
2 54039  97.2895 183.9577 0014465  57.6860 302.5802 15.72498432207267
GSLV R/B                
1 54149U 22138AN  26176.87294126  .00003222  00000+0  27401-3 0  9995
2 54149  87.3806 130.0672 0023909 114.7683 245.6040 14.97293389200119
XRISM                   
1 57800U 23137A   26176.76981434  .00005063  00000+0  27781-3 0  9991
2 57800  31.0027 304.0050 0007833  50.1002 310.0325 15.12535305154167
ACS3                    
1 59588U 24077B   26176.67302384  .00012285  00000+0  88845-2 0  9992
2 59588  97.1686  93.5731 0093118  57.9698 303.0473 13.94547395109222
CZ-8A R/B               
1 66004U 25231K   26176.71642376 -.00000029  00000+0  47767-4 0  9993
2 66004  50.0055   3.0288 0116490 254.0229 104.7828 14.30157085 36169
SZ-21 MODULE            
1 66515U 25246C   26176.57650076  .00054193  00000+0  32197-3 0  9996
2 66515  41.4721 255.0496 0005109  55.8742 304.2587 15.77097692 35067
