OBJECT_NAME,OBJECT_ID,EPOCH,MEAN_MOTION,ECCENTRICITY,INCLINATION,RA_OF_ASC_NODE,ARG_OF_PERICENTER,MEAN_ANOMALY,EPHEMERIS_TYPE,CLASSIFICATION_TYPE,NORAD_CAT_ID,ELEMENT_SET_NO,REV_AT_EPOCH,BSTAR,MEAN_MOTION_DOT,MEAN_MOTION_DDOT
COSMO-SKYMED 1,2007-023A,2026-06-25T19:46:10.335936,14.97144700,.0001832,97.8861,8.7522,91.2992,268.8440,0,U,31598,999,3108,.27812E-3,.3152E-4,0
COSMOS 2428,2007-029A,2026-06-25T20:26:17.692224,14.12927688,.0007133,70.9372,336.2845,118.3647,241.8194,0,U,31792,999,97937,.15916E-4,-.18E-6,0
SL-16 R/B,2007-029B,2026-06-25T19:46:20.779968,14.14855103,.0002448,70.9771,305.0727,263.7165,250.8019,0,U,31793,999,98066,-.73955E-4,-.191E-5,0
KORONAS-FOTON,2009-003A,2026-06-25T18:04:03.008640,15.45886888,.0012419,82.4286,163.3228,120.7554,239.4919,0,U,33504,999,96242,.27256E-3,.13322E-3,0
CZ-2C R/B,2011-030B,2026-06-25T19:41:28.658112,14.81491083,.0052298,97.8657,132.0507,0.1701,56.4028,0,U,37731,999,80610,.15624E-3,.1198E-4,0
H-2A R/B,2012-025E,2026-06-25T20:29:05.591616,14.95754462,.0043141,98.4822,152.7135,320.0100,39.7944,0,U,38341,999,76438,.23287E-3,.2573E-4,0
SHIJIAN-16 (SJ-16),2013-057A,2026-06-25T21:15:40.660992,14.92619336,.0016581,74.9732,340.2071,210.5635,149.4589,0,U,39358,999,68764,.12218E-3,.1232E-4,0
SL-4 R/B,2014-021B,2026-06-25T11:43:46.025760,15.42105744,.0090842,51.6034,170.0969,136.1973,224.6264,0,U,39679,999,67289,.23172E-3,.1125E-3,0
ALOS-2,2014-029A,2026-06-25T20:43:52.992192,14.79468555,.0001627,97.9218,273.9033,88.8619,271.2779,0,U,39766,999,65286,.11674E-3,.82E-5,0
YAOGAN-29,2015-069A,2026-06-25T21:08:53.737728,14.83088991,.0002178,98.0031,205.5275,40.1431,319.9943,0,U,41038,999,57191,-.21117E-4,-.226E-5,0
ASTRO-H (HITOMI),2016-012A,2026-06-25T19:44:55.903200,15.10546457,.0009716,31.0004,18.4145,339.6483,20.3767,0,U,41337,999,56859,.15384E-3,.2698E-4,0
HXMT (HUIYAN),2017-034A,2026-06-25T21:11:10.093344,15.18528600,.0031919,43.0129,134.6182,202.5190,157.4259,0,U,42758,999,49898,.22346E-3,.4516E-4,0
SAOCOM 1A,2018-076A,2026-06-25T20:16:40.835712,14.82153615,.0001576,97.8889,3.4678,80.1516,279.9875,0,U,43641,999,41738,.20884E-4,.114E-5,0
H-2A R/B,2018-084L,2026-06-25T17:46:09.075648,15.45468972,.002251,98.8574,57.5006,11.3078,348.8667,0,U,43682,999,42244,.4947E-3,.23852E-3,0
SAOCOM 1B,2020-059A,2026-06-25T16:09:54.765792,14.82151565,.0001606,97.8891,2.3941,84.2973,275.8423,0,U,46265,999,31474,.59858E-4,.424E-5,0
CSS (TIANHE),2021-035A,2026-06-25T17:48:41.200128,15.61175416,.0007837,41.4689,269.9263,150.3803,209.7481,0,U,48274,999,29450,.31832E-3,.27491E-3,0
COSMOS 2550,2021-056A,2026-06-25T21:24:55.103616,15.33848298,.000842,67.1437,73.5735,268.2122,91.8068,0,U,48865,999,28005,.1831E-3,.5841E-4,0
CZ-2C R/B,2022-058K,2026-06-25T19:31:41.563200,15.62435699,.0031902,50.1846,118.6119,303.3342,56.4579,0,U,52794,999,22699,.45327E-3,.41828E-3,0
CZ-2C R/B,2022-132E,2026-06-25T13:19:31.948032,15.72498432,.0014465,97.2895,183.9577,57.6860,302.5802,0,U,54039,999,20726,.57779E-3,.77865E-3,0
GSLV R/B,2022-138AN,2026-06-25T20:57:02.124864,14.97293389,.0023909,87.3806,130.0672,114.7683,245.6040,0,U,54149,999,20011,.27401E-3,.3222E-4,0
XRISM,2023-137A,2026-06-25T18:28:31.958976,15.12535305,.0007833,31.0027,304.0050,50.1002,310.0325,0,U,57800,999,15416,.27781E-3,.5063E-4,0
ACS3,2024-077B,2026-06-25T16:09:09.259776,13.94547395,.0093118,97.1686,93.5731,57.9698,303.0473,0,U,59588,999,10922,.88845E-2,.12285E-3,0
CZ-8A R/B,2025-231K,2026-06-25T17:11:39.012864,14.30157085,.011649,50.0055,3.0288,254.0229,104.7828,0,U,66004,999,3616,.47767E-4,-.29E-6,0
SZ-21 MODULE,2025-246C,2026-06-25T13:50:09.665664,15.77097692,.0005109,41.4721,255.0496,55.8742,304.2587,0,U,66515,999,3506,.32197E-3,.54193E-3,0
